GLOBALSTAR M001 [-]     
1 25162U 98008A   24039.21220554 -.00000037  00000+0  45913-3 0  9995
2 25162  52.0061 333.8478 0001391 309.1411 198.6772 12.38176250182502
GLOBALSTAR M004 [-]     
1 25163U 98008B   24039.20290815 -.00000062  00000+0  23283-3 0  9996
2 25163  51.9991 124.1790 0002436 261.9065 115.6005 12.63349903199222
GLOBALSTAR M002 [-]     
1 25164U 98008C   24038.73080007 -.00000044  00000+0  64554-3 0  9990
2 25164  52.0030  42.4655 0001168 314.7054  45.3671 11.61497236126494
GLOBALSTAR M003 [-]     
1 25165U 98008D   24038.92663801  .00000041  00000+0  13904-2 0  9999
2 25165  51.9807 100.2459 0007710  20.3512 151.0599 12.11975976173166
GLOBALSTAR M014 [-]     
1 25306U 98023A   24039.28818726 -.00000071  00000+0  11973-3 0  9990
2 25306  51.9873 334.6992 0000713 133.7747  35.2953 11.65464277133456
GLOBALSTAR M006 [-]     
1 25307U 98023B   24039.36336731 -.00000088  00000+0 -24352-3 0  9995
2 25307  51.9972   8.4869 0003688 303.7727 224.9360 11.58156171159604
GLOBALSTAR M015 [-]     
1 25308U 98023C   24038.83903237 -.00000138  00000+0 -14831-2 0  9994
2 25308  51.9822  85.5627 0012206 271.7643 259.5988 11.48856880137142
GLOBALSTAR M008 [-]     
1 25309U 98023D   24039.41457148 -.00000092  00000+0  35591-4 0  9991
2 25309  51.9944 192.4840 0002362 188.3437 188.9378 12.36036306176972
